NORAD_CAT_ID,OBJECT_NAME,OBJECT_TYPE,EPOCH,MEAN_MOTION,ECCENTRICITY,INCLINATION,RA_OF_ASC_NODE,ARG_OF_PERICENTER,MEAN_ANOMALY,BSTAR,MEAN_MOTION_DOT,MEAN_MOTION_DDOT,TLE_LINE0,TLE_LINE1,TLE_LINE2,SEMIMAJOR_AXIS,PERIOD,APOGEE,PERIGEE,DECAYED
52360.0,STARLINK-3824,PAYLOAD,2022-08-31 22:00:00,15.08718339,0.0002059,53.2167,201.1761,50.8013,199.3622,0.0074608999999999,0.00120083,0.0,0 STARLINK-3824,1 52360U 22045AF  22243.91667824  .00120083  00000-0  74609-2 0  9997,2 52360  53.2167 201.1761 0002059  50.8013 199.3622 15.08718339 21799,6918.252,95.445,541.5419999999998,538.693,0.0
52360.0,STARLINK-3824,PAYLOAD,2022-09-01 14:00:01,15.08826301,0.0002044999999999,53.2156,198.1926,48.4664,224.8483,-0.0014459,-0.00023218,0.0,0 STARLINK-3824,1 52360U 22045AF  22244.58335648 -.00023218  00000-0 -14459-2 0  9998,2 52360  53.2156 198.1926 0002045  48.4664 224.8483 15.08826301 21894,6917.922,95.438,541.202,538.373,0.0
52360.0,STARLINK-3824,PAYLOAD,2022-09-01 22:00:00,15.08829396,0.0002052,53.2156,196.696,53.2017,231.6169,0.00020259,2.937e-05,0.0,0 STARLINK-3824,1 52360U 22045AF  22244.91667824  .00002937  00000-0  20259-3 0  9998,2 52360  53.2156 196.6960 0002052  53.2017 231.6169 15.08829396  1307,6917.913000000001,95.438,541.197,538.3580000000002,0.0
52360.0,STARLINK-3824,PAYLOAD,2022-09-02 06:00:00,15.08808676,0.0002265,53.2156,195.2014,48.1844,248.2195,0.0021669,0.00034338,0.0,0 STARLINK-3824,1 52360U 22045AF  22245.25001157  .00034338  00000-0  21669-2 0  9992,2 52360  53.2156 195.2014 0002265  48.1844 248.2195 15.08808676 21997,6917.976,95.44,541.408,538.274,0.0
52360.0,STARLINK-3824,PAYLOAD,2022-09-02 14:00:01,15.08839481,0.0002150999999999,53.2156,193.7036,50.0634,257.9141,-0.0010349,-0.00016721,0.0,0 STARLINK-3824,1 52360U 22045AF  22245.58334491 -.00016721  00000-0 -10349-2 0  9999,2 52360  53.2156 193.7036 0002151  50.0634 257.9141 15.08839481  1306,6917.882,95.438,541.235,538.259,0.0
52360.0,STARLINK-3824,PAYLOAD,2022-09-02 22:00:01,15.088482699999998,0.0002166999999999,53.2158,192.2069,54.0279,265.5961,-0.00016152,-2.859e-05,0.0,0 STARLINK-3824,1 52360U 22045AF  22245.91668981 -.00002859  00000-0 -16152-3 0  9996,2 52360  53.2158 192.2069 0002167  54.0279 265.5961 15.08848270  1305,6917.855,95.437,541.219,538.221,0.0
52360.0,STARLINK-3824,PAYLOAD,2022-09-03 08:00:01,15.08830958,0.0002336999999999,53.2155,190.3382,48.2826,15.7855,0.0027545,0.00043813,0.0,0 STARLINK-3824,1 52360U 22045AF  22246.33334491  .00043813  00000-0  27545-2 0  9999,2 52360  53.2155 190.3382 0002337  48.2826  15.7855 15.08830958 22169,6917.908,95.438,541.39,538.156,0.0
52360.0,STARLINK-3824,PAYLOAD,2022-09-03 14:00:01,15.08857812,0.0002227,53.2158,189.2144,52.0891,290.6816,-0.00023954,-4.101e-05,0.0,0 STARLINK-3824,1 52360U 22045AF  22246.58334491 -.00004101  00000-0 -23954-3 0  9996,2 52360  53.2158 189.2144 0002227  52.0891 290.6816 15.08857812  1300,6917.826,95.436,541.232,538.15,0.0
52360.0,STARLINK-3824,PAYLOAD,2022-09-03 22:00:00,15.08887383,0.0002194,53.216,187.7179,54.6305,299.7478,-0.0028184,-0.00044923,0.0,0 STARLINK-3824,1 52360U 22045AF  22246.91667824 -.00044923  00000-0 -28184-2 0  9997,2 52360  53.2160 187.7179 0002194  54.6305 299.7478 15.08887383 22241,6917.736,95.435,541.118,538.0830000000002,0.0
52360.0,STARLINK-3824,PAYLOAD,2022-09-04 14:00:01,15.08859936,0.0002095,53.216,184.7249,51.7581,325.937,-0.0022055,-0.00035238,0.0,0 STARLINK-3824,1 52360U 22045AF  22247.58335648 -.00035238  00000-0 -22055-2 0  9997,2 52360  53.2160 184.7249 0002095  51.7581 325.9370 15.08859936 22358,6917.819,95.436,541.134,538.235,0.0
52360.0,STARLINK-3824,PAYLOAD,2022-09-04 20:00:01,15.08852608,0.0002,53.2161,183.6023,54.3669,241.9756,0.00062505,9.677e-05,0.0,0 STARLINK-3824,1 52360U 22045AF  22247.83334491  .00009677  00000-0  62505-3 0  9991,2 52360  53.2161 183.6023 0002000  54.3669 241.9756 15.08852608  1305,6917.842,95.437,541.09,538.323,0.0
52360.0,STARLINK-3824,PAYLOAD,2022-09-05 14:00:01,15.0885207,0.0001859,53.2161,180.2357,49.371,3.0978,-0.0017093,-0.00027398,0.0,0 STARLINK-3824,1 52360U 22045AF  22248.58334491 -.00027398  00000-0 -17093-2 0  9997,2 52360  53.2161 180.2357 0001859  49.3710   3.0978 15.08852070 22501,6917.843000000003,95.437,540.995,538.422,0.0
52360.0,STARLINK-3824,PAYLOAD,2022-09-05 22:00:00,15.088346,0.0001754,53.2162,178.7397,49.6666,14.4079,-0.0016869,-0.00027031,0.0,0 STARLINK-3824,1 52360U 22045AF  22248.91667824 -.00027031  00000-0 -16869-2 0  9997,2 52360  53.2162 178.7397 0001754  49.6666  14.4079 15.08834600  1307,6917.897,95.438,540.975,538.548,0.0
52360.0,STARLINK-3824,PAYLOAD,2022-09-06 12:00:00,15.08841203,0.00018,53.2159,176.1211,47.6279,306.7067,-0.00099903,-0.00016153,0.0,0 STARLINK-3824,1 52360U 22045AF  22249.50001157 -.00016153  00000-0 -99903-3 0  9998,2 52360  53.2159 176.1211 0001800  47.6279 306.7067 15.08841203 22630,6917.877,95.437,540.987,538.496,0.0
52360.0,STARLINK-3824,PAYLOAD,2022-09-06 14:00:01,15.08822033,0.0001725,53.216,175.7467,49.6718,37.5662,0.0016803,0.00026542,0.0,0 STARLINK-3824,1 52360U 22045AF  22249.58334491  .00026542  00000-0  16803-2 0  9994,2 52360  53.2160 175.7467 0001725  49.6718  37.5662 15.08822033  1307,6917.935,95.439,540.994,538.607,0.0
52360.0,STARLINK-3824,PAYLOAD,2022-09-06 22:00:00,15.08864683,0.0001837,53.2162,174.2509,52.5941,46.2239,-0.0039963,-0.00063374,0.0,0 STARLINK-3824,1 52360U 22045AF  22249.91667824 -.00063374  00000-0 -39963-2 0  9998,2 52360  53.2162 174.2509 0001837  52.5941  46.2239 15.08864683  1309,6917.805,95.436,540.941,538.399,0.0
52360.0,STARLINK-3824,PAYLOAD,2022-09-07 14:00:01,15.08814184,0.0001776999999999,53.2159,171.2578,52.6606,69.3359,-0.0002358,-4.036e-05,0.0,0 STARLINK-3824,1 52360U 22045AF  22250.58334491 -.00004036  00000-0 -23580-3 0  9993,2 52360  53.2159 171.2578 0001777  52.6606  69.3359 15.08814184 22808,6917.959,95.439,541.054,538.595,0.0
52360.0,STARLINK-3824,PAYLOAD,2022-09-07 22:00:00,15.08828011,0.0001841,53.2161,169.7622,53.073,80.4802,-0.0013038,-0.00020972,0.0,0 STARLINK-3824,1 52360U 22045AF  22250.91667824 -.00020972  00000-0 -13038-2 0  9992,2 52360  53.2161 169.7622 0001841  53.0730  80.4802 15.08828011  1301,6917.917,95.438,541.056,538.508,0.0
52360.0,STARLINK-3824,PAYLOAD,2022-09-08 14:00:01,15.08813444,0.0001816,53.216,166.769,53.0697,103.6394,0.0024289999999999,0.00038553,0.0,0 STARLINK-3824,1 52360U 22045AF  22251.58334491  .00038553  00000-0  24290-2 0  9991,2 52360  53.2160 166.7690 0001816  53.0697 103.6394 15.08813444  1304,6917.962,95.439,541.0830000000002,538.57,0.0
52360.0,STARLINK-3824,PAYLOAD,2022-09-08 22:00:00,15.08869956,0.0001886999999999,53.2162,165.2734,53.2594,115.0287,-0.0038763,-0.00061504,0.0,0 STARLINK-3824,1 52360U 22045AF  22251.91667824 -.00061504  00000-0 -38763-2 0  9991,2 52360  53.2162 165.2734 0001887  53.2594 115.0287 15.08869956  1302,6917.7890000000025,95.436,540.9590000000002,538.3480000000002,0.0
52360.0,STARLINK-3824,PAYLOAD,2022-09-09 14:00:01,15.08817822,0.0001801,53.2162,162.2799,51.4733,140.0095,0.0029969,0.00047702,0.0,0 STARLINK-3824,1 52360U 22045AF  22252.58334491  .00047702  00000-0  29969-2 0  9996,2 52360  53.2162 162.2799 0001801  51.4733 140.0095 15.08817822  1301,6917.948,95.439,541.059,538.567,0.0
52360.0,STARLINK-3824,PAYLOAD,2022-09-09 22:00:00,15.08874249,0.0001884,53.2164,160.7846,51.6396,151.4281,-0.0037042999999999,-0.00058817,0.0,0 STARLINK-3824,1 52360U 22045AF  22252.91667824 -.00058817  00000-0 -37043-2 0  9995,2 52360  53.2164 160.7846 0001884  51.6396 151.4281 15.08874249  1306,6917.776,95.435,540.944,538.337,0.0
52360.0,STARLINK-3824,PAYLOAD,2022-09-10 06:00:02,15.08815367,0.0001963,53.2163,159.2889,45.4706,169.2591,0.0022482,0.0003565,0.0,0 STARLINK-3824,1 52360U 22045AF  22253.25002315  .00035650  00000-0  22482-2 0  9990,2 52360  53.2163 159.2889 0001963  45.4706 169.2591 15.08815367 23209,6917.956,95.439,541.179,538.4630000000002,0.0
52360.0,STARLINK-3824,PAYLOAD,2022-09-10 14:00:01,15.08818682,0.0001814,53.2165,157.7909,50.2861,175.9784,0.0030889,0.00049187,0.0,0 STARLINK-3824,1 52360U 22045AF  22253.58334491  .00049187  00000-0  30889-2 0  9999,2 52360  53.2165 157.7909 0001814  50.2861 175.9784 15.08818682  1306,6917.946,95.439,541.065,538.556,0.0
52360.0,STARLINK-3824,PAYLOAD,2022-09-10 22:00:00,15.08867125,0.0001899,53.2166,156.2956,49.0846,188.7688,-0.0037573,-0.00059636,0.0,0 STARLINK-3824,1 52360U 22045AF  22253.91667824 -.00059636  00000-0 -37573-2 0  9994,2 52360  53.2166 156.2956 0001899  49.0846 188.7688 15.08867125  1306,6917.797,95.436,540.976,538.349,0.0
52360.0,STARLINK-3824,PAYLOAD,2022-09-11 06:00:00,15.08826431,0.0001949,53.2165,154.7999,44.2918,205.1627,0.0015696,0.00024771,0.0,0 STARLINK-3824,1 52360U 22045AF  22254.25001157  .00024771  00000-0  15696-2 0  9995,2 52360  53.2165 154.7999 0001949  44.2918 205.1627 15.08826431 23359,6917.922,95.438,541.135,538.439,0.0
52360.0,STARLINK-3824,PAYLOAD,2022-09-11 14:00:01,15.08837549,0.000184,53.2167,153.3017,50.3786,210.6864,0.001336,0.00021037,0.0,0 STARLINK-3824,1 52360U 22045AF  22254.58334491  .00021037  00000-0  13360-2 0  9999,2 52360  53.2167 153.3017 0001840  50.3786 210.6864 15.08837549  1305,6917.888000000001,95.438,541.026,538.48,0.0
52360.0,STARLINK-3824,PAYLOAD,2022-09-11 22:00:00,15.08847039,0.0001992,53.2167,151.8065,50.4344,222.2353,-0.0013535,-0.00021769,0.0,0 STARLINK-3824,1 52360U 22045AF  22254.91667824 -.00021769  00000-0 -13535-2 0  9993,2 52360  53.2167 151.8065 0001992  50.4344 222.2353 15.08847039  1307,6917.859,95.437,541.102,538.346,0.0
52360.0,STARLINK-3824,PAYLOAD,2022-09-12 06:00:00,15.08839185,0.0002017,53.2164,150.3105,46.2608,238.0066,-0.00077386,-0.00012583,0.0,0 STARLINK-3824,1 52360U 22045AF  22255.25001157 -.00012583  00000-0 -77386-3 0  9991,2 52360  53.2164 150.3105 0002017  46.2608 238.0066 15.08839185 23503,6917.8830000000025,95.438,541.143,538.3530000000002,0.0
